CCSDS_OMM_VERS = 2.0
CREATION_DATE  = 
ORIGINATOR     = 

OBJECT_NAME    = SL-16 R/B
OBJECT_ID      = 1993-016B
CENTER_NAME    = EARTH
REF_FRAME      = TEME
TIME_SYSTEM    = UTC
MEAN_ELEMENT_THEORY = SGP/SGP4

EPOCH          = 2025-12-08T14:32:22.732224
MEAN_MOTION    = 14.15287549
ECCENTRICITY   = .0007826
INCLINATION    = 71.0087
RA_OF_ASC_NODE = 46.4862
ARG_OF_PERICENTER = 105.4696
MEAN_ANOMALY   = 254.7292

EPHEMERIS_TYPE = 0
CLASSIFICATION_TYPE = U
NORAD_CAT_ID   = 22566
ELEMENT_SET_NO = 999
REV_AT_EPOCH   = 68928
BSTAR          = -.54054E-4
MEAN_MOTION_DOT = -.153E-5
MEAN_MOTION_DDOT = 0

CCSDS_OMM_VERS = 2.0
CREATION_DATE  = 
ORIGINATOR     = 

OBJECT_NAME    = COSMOS 2242
OBJECT_ID      = 1993-024A
CENTER_NAME    = EARTH
REF_FRAME      = TEME
TIME_SYSTEM    = UTC
MEAN_ELEMENT_THEORY = SGP/SGP4

EPOCH          = 2025-12-08T13:20:31.253856
MEAN_MOTION    = 14.96080464
ECCENTRICITY   = .0014801
INCLINATION    = 82.5187
RA_OF_ASC_NODE = 353.8437
ARG_OF_PERICENTER = 249.7104
MEAN_ANOMALY   = 110.2527

EPHEMERIS_TYPE = 0
CLASSIFICATION_TYPE = U
NORAD_CAT_ID   = 22626
ELEMENT_SET_NO = 999
REV_AT_EPOCH   = 76676
BSTAR          = .29718E-3
MEAN_MOTION_DOT = .3371E-4
MEAN_MOTION_DDOT = 0

CCSDS_OMM_VERS = 2.0
CREATION_DATE  = 
ORIGINATOR     = 

OBJECT_NAME    = SL-16 R/B
OBJECT_ID      = 1993-059B
CENTER_NAME    = EARTH
REF_FRAME      = TEME
TIME_SYSTEM    = UTC
MEAN_ELEMENT_THEORY = SGP/SGP4

EPOCH          = 2025-12-08T20:24:09.987840
MEAN_MOTION    = 14.17213396
ECCENTRICITY   = .00177572
INCLINATION    = 70.9897
RA_OF_ASC_NODE = 202.6883
ARG_OF_PERICENTER = 341.1491
MEAN_ANOMALY   = 18.8973

EPHEMERIS_TYPE = 0
CLASSIFICATION_TYPE = U
NORAD_CAT_ID   = 22803
ELEMENT_SET_NO = 999
REV_AT_EPOCH   = 66666
BSTAR          = .84048449E-4
MEAN_MOTION_DOT = .122E-5
MEAN_MOTION_DDOT = 0

CCSDS_OMM_VERS = 2.0
CREATION_DATE  = 
ORIGINATOR     = 

OBJECT_NAME    = ARIANE 40 R/B
OBJECT_ID      = 1993-061H
CENTER_NAME    = EARTH
REF_FRAME      = TEME
TIME_SYSTEM    = UTC
MEAN_ELEMENT_THEORY = SGP/SGP4

EPOCH          = 2025-12-08T18:39:29.042208
MEAN_MOTION    = 14.32797978
ECCENTRICITY   = .00106479
INCLINATION    = 98.5081
RA_OF_ASC_NODE = 48.3794
ARG_OF_PERICENTER = 187.6172
MEAN_ANOMALY   = 172.4853

EPHEMERIS_TYPE = 0
CLASSIFICATION_TYPE = U
NORAD_CAT_ID   = 22830
ELEMENT_SET_NO = 999
REV_AT_EPOCH   = 68108
BSTAR          = .22617098E-3
MEAN_MOTION_DOT = .574E-5
MEAN_MOTION_DDOT = 0

CCSDS_OMM_VERS = 2.0
CREATION_DATE  = 
ORIGINATOR     = 

OBJECT_NAME    = COSMOS 2278
OBJECT_ID      = 1994-023A
CENTER_NAME    = EARTH
REF_FRAME      = TEME
TIME_SYSTEM    = UTC
MEAN_ELEMENT_THEORY = SGP/SGP4

EPOCH          = 2025-12-08T18:53:57.458112
MEAN_MOTION    = 14.14351329
ECCENTRICITY   = .00085283
INCLINATION    = 71.0547
RA_OF_ASC_NODE = 5.2801
ARG_OF_PERICENTER = 185.9875
MEAN_ANOMALY   = 174.1147

EPHEMERIS_TYPE = 0
CLASSIFICATION_TYPE = U
NORAD_CAT_ID   = 23087
ELEMENT_SET_NO = 999
REV_AT_EPOCH   = 63195
BSTAR          = -.15972939E-4
MEAN_MOTION_DOT = -.78E-6
MEAN_MOTION_DDOT = 0

CCSDS_OMM_VERS = 2.0
CREATION_DATE  = 
ORIGINATOR     = 

OBJECT_NAME    = SL-16 R/B
OBJECT_ID      = 1994-023B
CENTER_NAME    = EARTH
REF_FRAME      = TEME
TIME_SYSTEM    = UTC
MEAN_ELEMENT_THEORY = SGP/SGP4

EPOCH          = 2025-12-08T22:42:25.139520
MEAN_MOTION    = 14.15001761
ECCENTRICITY   = .00011858
INCLINATION    = 71.0010
RA_OF_ASC_NODE = 261.4520
ARG_OF_PERICENTER = 43.2470
MEAN_ANOMALY   = 316.8746

EPHEMERIS_TYPE = 0
CLASSIFICATION_TYPE = U
NORAD_CAT_ID   = 23088
ELEMENT_SET_NO = 999
REV_AT_EPOCH   = 63325
BSTAR          = .13230507E-3
MEAN_MOTION_DOT = .209E-5
MEAN_MOTION_DDOT = 0

CCSDS_OMM_VERS = 2.0
CREATION_DATE  = 
ORIGINATOR     = 

OBJECT_NAME    = SL-16 R/B
OBJECT_ID      = 1994-074B
CENTER_NAME    = EARTH
REF_FRAME      = TEME
TIME_SYSTEM    = UTC
MEAN_ELEMENT_THEORY = SGP/SGP4

EPOCH          = 2025-12-08T20:10:01.405056
MEAN_MOTION    = 14.79283686
ECCENTRICITY   = .00072731
INCLINATION    = 97.7204
RA_OF_ASC_NODE = 12.2997
ARG_OF_PERICENTER = 147.0019
MEAN_ANOMALY   = 25.9405

EPHEMERIS_TYPE = 0
CLASSIFICATION_TYPE = U
NORAD_CAT_ID   = 23343
ELEMENT_SET_NO = 999
REV_AT_EPOCH   = 67381
BSTAR          = .14195334E-3
MEAN_MOTION_DOT = .1007E-4
MEAN_MOTION_DDOT = 0

CCSDS_OMM_VERS = 2.0
CREATION_DATE  = 
ORIGINATOR     = 

OBJECT_NAME    = SL-16 R/B
OBJECT_ID      = 1994-077B
CENTER_NAME    = EARTH
REF_FRAME      = TEME
TIME_SYSTEM    = UTC
MEAN_ELEMENT_THEORY = SGP/SGP4

EPOCH          = 2025-12-08T23:06:52.900992
MEAN_MOTION    = 14.15547312
ECCENTRICITY   = .00045929
INCLINATION    = 70.9812
RA_OF_ASC_NODE = 183.3590
ARG_OF_PERICENTER = 286.8746
MEAN_ANOMALY   = 73.1873

EPHEMERIS_TYPE = 0
CLASSIFICATION_TYPE = U
NORAD_CAT_ID   = 23405
ELEMENT_SET_NO = 999
REV_AT_EPOCH   = 60339
BSTAR          = .14451405E-3
MEAN_MOTION_DOT = .235E-5
MEAN_MOTION_DDOT = 0

CCSDS_OMM_VERS = 2.0
CREATION_DATE  = 
ORIGINATOR     = 

OBJECT_NAME    = ARIANE 40+ R/B
OBJECT_ID      = 1995-021B
CENTER_NAME    = EARTH
REF_FRAME      = TEME
TIME_SYSTEM    = UTC
MEAN_ELEMENT_THEORY = SGP/SGP4

EPOCH          = 2025-12-08T18:49:43.549248
MEAN_MOTION    = 14.39691539
ECCENTRICITY   = .00076314
INCLINATION    = 98.4655
RA_OF_ASC_NODE = 50.4210
ARG_OF_PERICENTER = 60.3501
MEAN_ANOMALY   = 49.5530

EPHEMERIS_TYPE = 0
CLASSIFICATION_TYPE = U
NORAD_CAT_ID   = 23561
ELEMENT_SET_NO = 999
REV_AT_EPOCH   = 60616
BSTAR          = .23420557E-3
MEAN_MOTION_DOT = .69E-5
MEAN_MOTION_DDOT = 0

CCSDS_OMM_VERS = 2.0
CREATION_DATE  = 
ORIGINATOR     = 

OBJECT_NAME    = SL-16 R/B
OBJECT_ID      = 1995-058B
CENTER_NAME    = EARTH
REF_FRAME      = TEME
TIME_SYSTEM    = UTC
MEAN_ELEMENT_THEORY = SGP/SGP4

EPOCH          = 2025-12-08T19:46:57.828288
MEAN_MOTION    = 14.15482571
ECCENTRICITY   = .00149247
INCLINATION    = 71.0225
RA_OF_ASC_NODE = 11.0249
ARG_OF_PERICENTER = 260.0744
MEAN_ANOMALY   = 99.8694

EPHEMERIS_TYPE = 0
CLASSIFICATION_TYPE = U
NORAD_CAT_ID   = 23705
ELEMENT_SET_NO = 999
REV_AT_EPOCH   = 55499
BSTAR          = .15670213E-3
MEAN_MOTION_DOT = .259E-5
MEAN_MOTION_DDOT = 0

CCSDS_OMM_VERS = 2.0
CREATION_DATE  = 
ORIGINATOR     = 

OBJECT_NAME    = SL-16 R/B
OBJECT_ID      = 1996-051B
CENTER_NAME    = EARTH
REF_FRAME      = TEME
TIME_SYSTEM    = UTC
MEAN_ELEMENT_THEORY = SGP/SGP4

EPOCH          = 2025-12-08T19:20:26.944224
MEAN_MOTION    = 14.12396162
ECCENTRICITY   = .00193283
INCLINATION    = 70.7596
RA_OF_ASC_NODE = 7.6111
ARG_OF_PERICENTER = 266.1734
MEAN_ANOMALY   = 93.7176

EPHEMERIS_TYPE = 0
CLASSIFICATION_TYPE = U
NORAD_CAT_ID   = 24298
ELEMENT_SET_NO = 999
REV_AT_EPOCH   = 50881
BSTAR          = .58438415E-4
MEAN_MOTION_DOT = .59E-6
MEAN_MOTION_DDOT = 0

CCSDS_OMM_VERS = 2.0
CREATION_DATE  = 
ORIGINATOR     = 

OBJECT_NAME    = ORBVIEW 2 (SEASTAR)
OBJECT_ID      = 1997-037A
CENTER_NAME    = EARTH
REF_FRAME      = TEME
TIME_SYSTEM    = UTC
MEAN_ELEMENT_THEORY = SGP/SGP4

EPOCH          = 2025-12-08T22:36:34.596576
MEAN_MOTION    = 14.35412477
ECCENTRICITY   = .00018418
INCLINATION    = 98.8455
RA_OF_ASC_NODE = 139.9210
ARG_OF_PERICENTER = 354.1114
MEAN_ANOMALY   = 6.0049

EPHEMERIS_TYPE = 0
CLASSIFICATION_TYPE = U
NORAD_CAT_ID   = 24883
ELEMENT_SET_NO = 999
REV_AT_EPOCH   = 49545
BSTAR          = .19662966E-3
MEAN_MOTION_DOT = .518E-5
MEAN_MOTION_DDOT = 0

